NORAD_CAT_ID,OBJECT_NAME,OBJECT_TYPE,EPOCH,MEAN_MOTION,ECCENTRICITY,INCLINATION,RA_OF_ASC_NODE,ARG_OF_PERICENTER,MEAN_ANOMALY,BSTAR,MEAN_MOTION_DOT,MEAN_MOTION_DDOT,TLE_LINE0,TLE_LINE1,TLE_LINE2,SEMIMAJOR_AXIS,PERIOD,APOGEE,PERIGEE,DECAYED
53425.0,STARLINK-4531,PAYLOAD,2023-08-25 12:09:52,15.08844134,0.0001465,53.2189,316.4028,103.403,256.7125,7.8028e-05,9.54e-06,0.0,0 STARLINK-4531,1 53425U 22097AP  23237.50685977  .00000954  00000-0  78028-4 0  9990,2 53425  53.2189 316.4028 0001465 103.4030 256.7125 15.08844134 58649,6917.868,95.437,540.746,538.719,0.0
53425.0,STARLINK-4531,PAYLOAD,2023-08-25 13:45:15,15.08844083,0.000145,53.2188,316.1054,101.8251,258.2904,7.3392e-05,8.8e-06,0.0,0 STARLINK-4531,1 53425U 22097AP  23237.57309969  .00000880  00000-0  73392-4 0  9998,2 53425  53.2188 316.1054 0001450 101.8251 258.2904 15.08844083 58651,6917.868,95.437,540.736,538.73,0.0
53425.0,STARLINK-4531,PAYLOAD,2023-08-26 10:25:17,15.08835742,0.0001545,53.2187,312.2399,104.7373,255.3791,3.0464e-05,1.97e-06,0.0,0 STARLINK-4531,1 53425U 22097AP  23238.43422682  .00000197  00000-0  30464-4 0  9996,2 53425  53.2187 312.2399 0001545 104.7373 255.3791 15.08835742 58330,6917.893,95.438,540.827,538.69,0.0
53425.0,STARLINK-4531,PAYLOAD,2023-08-26 15:11:26,15.08837127,0.0001559,53.2185,311.3475,105.654,254.4624,3.8919e-05,3.31e-06,0.0,0 STARLINK-4531,1 53425U 22097AP  23238.63294580  .00000331  00000-0  38919-4 0  9995,2 53425  53.2185 311.3475 0001559 105.6540 254.4624 15.08837127 58811,6917.889,95.438,540.833,538.676,0.0
53425.0,STARLINK-4531,PAYLOAD,2023-08-27 08:40:41,15.08837674,0.0001509,53.218,308.077,100.8169,259.2993,3.0469e-05,1.97e-06,0.0,0 STARLINK-4531,1 53425U 22097AP  23239.36158774  .00000197  00000-0  30469-4 0  9992,2 53425  53.2180 308.0770 0001509 100.8169 259.2993 15.08837674 58927,6917.887,95.438,540.796,538.709,0.0
53425.0,STARLINK-4531,PAYLOAD,2023-08-27 13:26:50,15.08838571,0.000151,53.218,307.1848,100.7997,259.3165,3.427e-05,2.57e-06,0.0,0 STARLINK-4531,1 53425U 22097AP  23239.56030719  .00000257  00000-0  34270-4 0  9993,2 53425  53.2180 307.1848 0001510 100.7997 259.3165 15.08838571 58506,6917.885,95.438,540.794,538.705,0.0
53425.0,STARLINK-4531,PAYLOAD,2023-08-28 21:14:33,15.0883833,0.0001541,53.2182,301.2378,90.3119,269.805,6.1533e-05,6.91e-06,0.0,0 STARLINK-4531,1 53425U 22097AP  23240.88510952  .00000691  00000-0  61533-4 0  9996,2 53425  53.2182 301.2378 0001541  90.3119 269.8050 15.08838330 59159,6917.885,95.438,540.817,538.684,0.0
53425.0,STARLINK-4531,PAYLOAD,2023-08-29 11:33:01,15.08841042,0.0001494,53.2177,298.5617,90.1416,269.9747,7.9997e-05,9.85e-06,0.0,0 STARLINK-4531,1 53425U 22097AP  23241.48126799  .00000985  00000-0  79997-4 0  9994,2 53425  53.2177 298.5617 0001494  90.1416 269.9747 15.08841042 59240,6917.877,95.437,540.776,538.709,0.0
53425.0,STARLINK-4531,PAYLOAD,2023-08-30 08:13:02,15.08839451,0.0001588,53.2176,294.6985,81.3173,278.7999,-2.6871e-06,-3.31e-06,0.0,0 STARLINK-4531,1 53425U 22097AP  23242.34239321 -.00000331  00000-0 -26871-5 0  9997,2 53425  53.2176 294.6985 0001588  81.3173 278.7999 15.08839451 58922,6917.882,95.438,540.846,538.649,0.0
53425.0,STARLINK-4531,PAYLOAD,2023-08-30 20:56:07,15.08841244,0.0001454,53.2172,292.3198,84.5784,275.5374,5.7619e-05,6.29e-06,0.0,0 STARLINK-4531,1 53425U 22097AP  23242.87230933  .00000629  00000-0  57619-4 0  9996,2 53425  53.2172 292.3198 0001454  84.5784 275.5374 15.08841244 59458,6917.877,95.437,540.747,538.736,0.0
53425.0,STARLINK-4531,PAYLOAD,2023-08-31 08:03:49,15.08842449,0.0001385,53.217,290.2382,83.992,276.123,7.1363e-05,8.48e-06,0.0,0 STARLINK-4531,1 53425U 22097AP  23243.33598765  .00000848  00000-0  71363-4 0  9993,2 53425  53.2170 290.2382 0001385  83.9920 276.1230 15.08842449 59520,6917.873,95.437,540.696,538.78,0.0
53425.0,STARLINK-4531,PAYLOAD,2023-09-01 11:05:22,15.0884742,0.0001295,53.2173,285.1818,88.2274,271.8866,9.5772e-05,1.237e-05,0.0,0 STARLINK-4531,1 53425U 22097AP  23244.46206449  .00001237  00000-0  95772-4 0  9996,2 53425  53.2173 285.1818 0001295  88.2274 271.8866 15.08847420 59240,6917.858,95.437,540.619,538.827,0.0
53425.0,STARLINK-4531,PAYLOAD,2023-09-02 09:20:46,15.08831321,9.05e-05,53.2154,281.0184,96.7991,263.3104,0.00025121,3.712e-05,0.0,0 STARLINK-4531,1 53425U 22097AP  23245.38942931  .00003712  00000-0  25121-3 0  9991,2 53425  53.2154 281.0184 0000905  96.7991 263.3104 15.08831321 59386,6917.907,95.438,540.398,539.146,0.0
53425.0,STARLINK-4531,PAYLOAD,2023-09-02 14:06:55,15.08846016,0.0001482,53.2169,280.1261,91.2673,268.8489,6.2894e-05,7.13e-06,0.0,0 STARLINK-4531,1 53425U 22097AP  23245.58814424  .00000713  00000-0  62894-4 0  9995,2 53425  53.2169 280.1261 0001482  91.2673 268.8489 15.08846016 59413,6917.862,95.437,540.752,538.702,0.0
53425.0,STARLINK-4531,PAYLOAD,2023-09-02 18:53:05,15.0883675,0.0001463,53.2157,279.2335,91.7003,268.4157,2.0533e-05,3.9e-07,0.0,0 STARLINK-4531,1 53425U 22097AP  23245.78687135  .00000039  00000-0  20533-4 0  9999,2 53425  53.2157 279.2335 0001463  91.7003 268.4157 15.08836750 59896,6917.89,95.438,540.767,538.743,0.0
53425.0,STARLINK-4531,PAYLOAD,2023-09-03 01:14:38,15.08845069,0.0001405,53.2174,278.0432,90.1085,270.0068,-0.00010026,-1.883e-05,0.0,0 STARLINK-4531,1 53425U 22097AP  23246.05183151 -.00001883  00000-0 -10026-3 0  9994,2 53425  53.2174 278.0432 0001405  90.1085 270.0068 15.08845069 59487,6917.865,95.437,540.702,538.758,0.0
53425.0,STARLINK-4531,PAYLOAD,2023-09-03 09:11:33,15.0883948,0.0001392,53.2168,276.5586,87.3627,272.7524,4.7675e-05,4.71e-06,0.0,0 STARLINK-4531,1 53425U 22097AP  23246.38302961  .00000471  00000-0  47675-4 0  9993,2 53425  53.2168 276.5586 0001392  87.3627 272.7524 15.08839480 59989,6917.882,95.438,540.71,538.784,0.0
53425.0,STARLINK-4531,PAYLOAD,2023-09-03 18:43:53,15.08824708,0.0001833,53.216,274.7734,84.0149,276.1052,-7.2409e-05,-1.44e-05,0.0,0 STARLINK-4531,1 53425U 22097AP  23246.78048463 -.00001440  00000-0 -72409-4 0  9993,2 53425  53.2160 274.7734 0001833  84.0149 276.1052 15.08824708 59597,6917.927,95.439,541.06,538.524,0.0
53425.0,STARLINK-4531,PAYLOAD,2023-09-04 10:37:45,15.08822564,0.0001447,53.216,271.8014,91.7744,268.3414,-9.0198e-05,-1.722e-05,0.0,0 STARLINK-4531,1 53425U 22097AP  23247.44289145 -.00001722  00000-0 -90198-4 0  9999,2 53425  53.2160 271.8014 0001447  91.7744 268.3414 15.08822564 60149,6917.934,95.439,540.8,538.798,0.0
53425.0,STARLINK-4531,PAYLOAD,2023-09-05 10:28:33,15.08829625,0.0001347,53.2166,267.3403,85.5237,274.5909,2.4443e-05,1.01e-06,0.0,0 STARLINK-4531,1 53425U 22097AP  23248.43649326  .00000101  00000-0  24443-4 0  9998,2 53425  53.2166 267.3403 0001347  85.5237 274.5909 15.08829625 59842,6917.912,95.438,540.709,538.845,0.0
53425.0,STARLINK-4531,PAYLOAD,2023-09-06 07:08:33,15.08832613,0.0001327,53.2165,263.4742,88.6749,271.4395,0.00023769,3.496e-05,0.0,0 STARLINK-4531,1 53425U 22097AP  23249.29761296  .00003496  00000-0  23769-3 0  9993,2 53425  53.2165 263.4742 0001327  88.6749 271.4395 15.08832613 60426,6917.903,95.438,540.686,538.85,0.0
53425.0,STARLINK-4531,PAYLOAD,2023-09-06 13:30:06,15.08839038,0.0001339,53.2164,262.2844,87.7084,272.4061,0.0002386,3.511e-05,0.0,0 STARLINK-4531,1 53425U 22097AP  23249.56257054  .00003511  00000-0  23860-3 0  9995,2 53425  53.2164 262.2844 0001339  87.7084 272.4061 15.08839038 60014,6917.883,95.438,540.675,538.822,0.0
53425.0,STARLINK-4531,PAYLOAD,2023-09-06 18:16:15,15.08844468,0.0001354,53.2165,261.3926,88.5388,271.5759,0.00026725,3.968e-05,0.0,0 STARLINK-4531,1 53425U 22097AP  23249.76128760  .00003968  00000-0  26725-3 0  9997,2 53425  53.2165 261.3926 0001354  88.5388 271.5759 15.08844468 60498,6917.867,95.437,540.668,538.795,0.0
53425.0,STARLINK-4531,PAYLOAD,2023-09-07 00:37:47,15.08850196,0.0001352,53.2164,260.2029,88.6635,271.4512,0.00025781,3.819e-05,0.0,0 STARLINK-4531,1 53425U 22097AP  23250.02624447  .00003819  00000-0  25781-3 0  9997,2 53425  53.2164 260.2029 0001352  88.6635 271.4512 15.08850196 60089,6917.849,95.437,540.65,538.779,0.0
53425.0,STARLINK-4531,PAYLOAD,2023-09-07 06:59:19,15.0885673,0.0001332,53.2162,259.0134,89.0011,271.1133,0.00031844,4.786e-05,0.0,0 STARLINK-4531,1 53425U 22097AP  23250.29119997  .00004786  00000-0  31844-3 0  9996,2 53425  53.2162 259.0134 0001332  89.0011 271.1133 15.08856730 60571,6917.829,95.436,540.616,538.773,0.0
53425.0,STARLINK-4531,PAYLOAD,2023-09-07 18:07:01,15.08856547,0.0001326,53.2156,256.932,86.0818,274.0326,0.00025201,3.727e-05,0.0,0 STARLINK-4531,1 53425U 22097AP  23250.75488020  .00003727  00000-0  25201-3 0  9997,2 53425  53.2156 256.9320 0001326  86.0818 274.0326 15.08856547 60642,6917.83,95.437,540.612,538.778,0.0
53425.0,STARLINK-4531,PAYLOAD,2023-09-08 06:50:06,15.08850176,0.0001465,53.2156,254.5528,89.6136,270.5023,5.9571e-05,6.6e-06,0.0,0 STARLINK-4531,1 53425U 22097AP  23251.28480035  .00000660  00000-0  59571-4 0  9995,2 53425  53.2156 254.5528 0001465  89.6136 270.5023 15.08850176 60278,6917.849,95.437,540.728,538.701,0.0
53425.0,STARLINK-4531,PAYLOAD,2023-09-08 11:36:15,15.08853883,0.0001467,53.2159,253.6606,90.4043,269.7117,0.00010228,1.341e-05,0.0,0 STARLINK-4531,1 53425U 22097AP  23251.48351682  .00001341  00000-0  10228-3 0  9994,2 53425  53.2159 253.6606 0001467  90.4043 269.7117 15.08853883 60752,6917.838,95.437,540.718,538.688,0.0
53425.0,STARLINK-4531,PAYLOAD,2023-09-09 00:19:21,15.08841295,0.0001518,53.2163,251.2802,102.4776,257.6386,-0.00011155,-2.063e-05,0.0,0 STARLINK-4531,1 53425U 22097AP  23252.01344053 -.00002063  00000-0 -11155-3 0  9992,2 53425  53.2163 251.2802 0001518 102.4776 257.6386 15.08841295 60380,6917.876,95.437,540.792,538.691,0.0
53425.0,STARLINK-4531,PAYLOAD,2023-09-09 11:27:02,15.08848169,0.0001441,53.217,249.2004,94.4595,265.6562,-2.2496e-05,-6.46e-06,0.0,0 STARLINK-4531,1 53425U 22097AP  23252.47711796 -.00000646  00000-0 -22496-4 0  9990,2 53425  53.2170 249.2004 0001441  94.4595 265.6562 15.08848169 60903,6917.855,95.437,540.717,538.724,0.0
